{
 "type": "FeatureCollection",
 "properties": {
  "city": "bandar-abbas",
  "provenance": "sample",
  "note": "Sample geometry for development. NOT the official network."
 },
 "features": [
  {
   "type": "Feature",
   "properties": {
    "line_code": "102",
    "direction": "outbound",
    "provenance": "sample"
   },
   "geometry": {
    "type": "LineString",
    "coordinates": [
     [
      56.241,
      27.162
     ],
     [
      56.24808,
      27.16555
     ],
     [
      56.256,
      27.1655
     ],
     [
      56.250541,
      27.173776
     ],
     [
      56.2492,
      27.1836
     ],
     [
      56.256092,
      27.183086
     ],
     [
      56.262,
      27.1795
     ],
     [
      56.263716,
      27.182926
     ],
     [
      56.2668,
      27.1852
     ],
     [
      56.262458,
      27.185004
     ],
     [
      56.2585,
      27.1868
     ],
     [
      56.266856,
      27.18944
     ],
     [
      56.2755,
      27.188
     ],
     [
      56.28045,
      27.19051
     ],
     [
      56.286,
      27.1905
     ],
     [
      56.29134,
      27.19469
     ],
     [
      56.298,
      27.196
     ],
     [
      56.313256,
      27.20382
     ],
     [
      56.33,
      27.2075
     ]
    ]
   }
  },
  {
   "type": "Feature",
   "properties": {
    "line_code": "102",
    "direction": "inbound",
    "provenance": "sample"
   },
   "geometry": {
    "type": "LineString",
    "coordinates": [
     [
      56.33,
      27.2075
     ],
     [
      56.314744,
      27.19968
     ],
     [
      56.298,
      27.196
     ],
     [
      56.29266,
      27.19181
     ],
     [
      56.286,
      27.1905
     ],
     [
      56.28105,
      27.18799
     ],
     [
      56.2755,
      27.188
     ],
     [
      56.267144,
      27.18536
     ],
     [
      56.2585,
      27.1868
     ],
     [
      56.262842,
      27.186996
     ],
     [
      56.2668,
      27.1852
     ],
     [
      56.265084,
      27.181774
     ],
     [
      56.262,
      27.1795
     ],
     [
      56.255108,
      27.180014
     ],
     [
      56.2492,
      27.1836
     ],
     [
      56.254659,
      27.175324
     ],
     [
      56.256,
      27.1655
     ],
     [
      56.24892,
      27.16195
     ],
     [
      56.241,
      27.162
     ]
    ]
   }
  },
  {
   "type": "Feature",
   "properties": {
    "line_code": "205",
    "direction": "outbound",
    "provenance": "sample"
   },
   "geometry": {
    "type": "LineString",
    "coordinates": [
     [
      56.2205,
      27.1725
     ],
     [
      56.22709,
      27.17699
     ],
     [
      56.235,
      27.178
     ],
     [
      56.241428,
      27.182504
     ],
     [
      56.2492,
      27.1836
     ],
     [
      56.260451,
      27.186049
     ],
     [
      56.2718,
      27.1841
     ],
     [
      56.269168,
      27.18405
     ],
     [
      56.2668,
      27.1852
     ],
     [
      56.263464,
      27.188524
     ],
     [
      56.262,
      27.193
     ]
    ]
   }
  },
  {
   "type": "Feature",
   "properties": {
    "line_code": "205",
    "direction": "inbound",
    "provenance": "sample"
   },
   "geometry": {
    "type": "LineString",
    "coordinates": [
     [
      56.262,
      27.193
     ],
     [
      56.265336,
      27.189676
     ],
     [
      56.2668,
      27.1852
     ],
     [
      56.269432,
      27.18525
     ],
     [
      56.2718,
      27.1841
     ],
     [
      56.260549,
      27.181651
     ],
     [
      56.2492,
      27.1836
     ],
     [
      56.242772,
      27.179096
     ],
     [
      56.235,
      27.178
     ],
     [
      56.22841,
      27.17351
     ],
     [
      56.2205,
      27.1725
     ]
    ]
   }
  },
  {
   "type": "Feature",
   "properties": {
    "line_code": "310",
    "direction": "outbound",
    "provenance": "sample"
   },
   "geometry": {
    "type": "LineString",
    "coordinates": [
     [
      56.2668,
      27.1852
     ],
     [
      56.270814,
      27.187644
     ],
     [
      56.2755,
      27.188
     ],
     [
      56.283816,
      27.1864
     ],
     [
      56.2905,
      27.1812
     ],
     [
      56.292474,
      27.1895
     ],
     [
      56.298,
      27.196
     ],
     [
      56.313256,
      27.20382
     ],
     [
      56.33,
      27.2075
     ],
     [
      56.353415,
      27.215046
     ],
     [
      56.3778,
      27.2183
     ]
    ]
   }
  },
  {
   "type": "Feature",
   "properties": {
    "line_code": "310",
    "direction": "inbound",
    "provenance": "sample"
   },
   "geometry": {
    "type": "LineString",
    "coordinates": [
     [
      56.3778,
      27.2183
     ],
     [
      56.354385,
      27.210754
     ],
     [
      56.33,
      27.2075
     ],
     [
      56.314744,
      27.19968
     ],
     [
      56.298,
      27.196
     ],
     [
      56.296026,
      27.1877
     ],
     [
      56.2905,
      27.1812
     ],
     [
      56.282184,
      27.1828
     ],
     [
      56.2755,
      27.188
     ],
     [
      56.271486,
      27.185556
     ],
     [
      56.2668,
      27.1852
     ]
    ]
   }
  },
  {
   "type": "Feature",
   "properties": {
    "line_code": "118",
    "direction": "outbound",
    "provenance": "sample"
   },
   "geometry": {
    "type": "LineString",
    "coordinates": [
     [
      56.079,
      27.129
     ],
     [
      56.159561,
      27.147656
     ],
     [
      56.241,
      27.162
     ],
     [
      56.24808,
      27.16555
     ],
     [
      56.256,
      27.1655
     ],
     [
      56.250541,
      27.173776
     ],
     [
      56.2492,
      27.1836
     ]
    ]
   }
  },
  {
   "type": "Feature",
   "properties": {
    "line_code": "118",
    "direction": "inbound",
    "provenance": "sample"
   },
   "geometry": {
    "type": "LineString",
    "coordinates": [
     [
      56.2492,
      27.1836
     ],
     [
      56.254659,
      27.175324
     ],
     [
      56.256,
      27.1655
     ],
     [
      56.24892,
      27.16195
     ],
     [
      56.241,
      27.162
     ],
     [
      56.160439,
      27.143344
     ],
     [
      56.079,
      27.129
     ]
    ]
   }
  },
  {
   "type": "Feature",
   "properties": {
    "line_code": "222",
    "direction": "outbound",
    "provenance": "sample"
   },
   "geometry": {
    "type": "LineString",
    "coordinates": [
     [
      56.268,
      27.214
     ],
     [
      56.257302,
      27.207451
     ],
     [
      56.245,
      27.205
     ],
     [
      56.25122,
      27.20332
     ],
     [
      56.256,
      27.199
     ],
     [
      56.25972,
      27.19672
     ],
     [
      56.262,
      27.193
     ],
     [
      56.267968,
      27.189726
     ],
     [
      56.2718,
      27.1841
     ],
     [
      56.272962,
      27.176394
     ],
     [
      56.2705,
      27.169
     ]
    ]
   }
  },
  {
   "type": "Feature",
   "properties": {
    "line_code": "222",
    "direction": "inbound",
    "provenance": "sample"
   },
   "geometry": {
    "type": "LineString",
    "coordinates": [
     [
      56.2705,
      27.169
     ],
     [
      56.269338,
      27.176706
     ],
     [
      56.2718,
      27.1841
     ],
     [
      56.265832,
      27.187374
     ],
     [
      56.262,
      27.193
     ],
     [
      56.25828,
      27.19528
     ],
     [
      56.256,
      27.199
     ],
     [
      56.24978,
      27.20068
     ],
     [
      56.245,
      27.205
     ],
     [
      56.255698,
      27.211549
     ],
     [
      56.268,
      27.214
     ]
    ]
   }
  },
  {
   "type": "Feature",
   "properties": {
    "line_code": "140",
    "direction": "outbound",
    "provenance": "sample"
   },
   "geometry": {
    "type": "LineString",
    "coordinates": [
     [
      56.283,
      27.1735
     ],
     [
      56.27908,
      27.17441
     ],
     [
      56.276,
      27.177
     ],
     [
      56.27421,
      27.17234
     ],
     [
      56.2705,
      27.169
     ],
     [
      56.268706,
      27.163916
     ],
     [
      56.2648,
      27.1602
     ]
    ]
   }
  },
  {
   "type": "Feature",
   "properties": {
    "line_code": "140",
    "direction": "inbound",
    "provenance": "sample"
   },
   "geometry": {
    "type": "LineString",
    "coordinates": [
     [
      56.2648,
      27.1602
     ],
     [
      56.266594,
      27.165284
     ],
     [
      56.2705,
      27.169
     ],
     [
      56.27229,
      27.17366
     ],
     [
      56.276,
      27.177
     ],
     [
      56.27992,
      27.17609
     ],
     [
      56.283,
      27.1735
     ]
    ]
   }
  }
 ]
}